ID,name,location,type,adname,address,X,Y
0,汕头超声印制板(二厂)有限公司,"116.712840,23.424630",公司企业;公司;冶金化工,龙湖区,泰山北路万吉工业区龙江路12号超声工业园区,116.71284,23.42463
1,兄弟化学品,"116.724271,23.421511",公司企业;公司;冶金化工,龙湖区,火车北站折返段内兄弟大楼,116.724271,23.421511
2,摩根冶金实业有限公司,"116.704539,23.426943",公司企业;公司;冶金化工,龙湖区,万吉工业区万吉北街3号,116.704539,23.426943
3,裕丰石材新厂,"116.764274,23.361275",公司企业;公司;冶金化工,龙湖区,永益街(永安大楼北侧),116.764274,23.361275
4,金平化工,"116.737739,23.380816",公司企业;公司;冶金化工,龙湖区,长江路龙都锦园10幢,116.737739,23.380816
5,定记食品厂,"116.756474,23.384792",公司企业;公司;冶金化工,龙湖区,珠津工业区韶山路261号首层厂房,116.756474,23.384792
6,泽益不锈钢加工厂,"116.761088,23.367097",公司企业;公司;冶金化工,龙湖区,南宁街南山居委文化广场西侧约30米,116.761088,23.367097
7,金诚石材厂,"116.729115,23.390299",公司企业;公司;冶金化工,龙湖区,嵩山路嵩山大厦北侧约60米,116.729115,23.390299
8,懿梦门窗厂,"116.760931,23.395007",公司企业;公司;冶金化工,龙湖区,高新中街西段与泽e街交叉路口往东约270米,116.760931,23.395007
9,汕头市潮能化工有限公司,"116.723660,23.380477",公司企业;公司;冶金化工,龙湖区,天山路66号华星大厦13层,116.72366,23.380477
10,阿杰后整厂,"116.747743,23.438217",公司企业;公司;冶金化工,龙湖区,蓬发大道金双喜隔壁停车场2楼,116.747743,23.438217
11,新博化工,"116.767803,23.400793",公司企业;公司;冶金化工,龙湖区,昆仑山路下三合小学北侧约200米,116.767803,23.400793
12,丰达食品厂,"116.776340,23.382329",公司企业;公司;冶金化工,龙湖区,新溪街道新兴路68号1幢1楼北侧,116.77634,23.382329
13,三宝绣品厂,"116.717590,23.376630",公司企业;公司;冶金化工,龙湖区,练江南路9号,116.71759,23.37663
14,汕头市宏祥织绣厂,"116.719877,23.371555",公司企业;公司;冶金化工,龙湖区,龙湖北路粤通大厦8楼,116.719877,23.371555
15,桂东电脑绣花厂,"116.719407,23.376903",公司企业;公司;冶金化工,龙湖区,练江路龙湖工业区F4栋南座西梯2楼,116.719407,23.376903
16,热狗王加工厂,"116.729693,23.373606",公司企业;公司;冶金化工,龙湖区,衡山路与珠池路交界处珠合市场后鸿珠厂房1楼,116.729693,23.373606
17,珠合印刷厂,"116.730496,23.374081",公司企业;公司;冶金化工,龙湖区,新津街道衡山路华诚大厦,116.730496,23.374081
18,兴韵服装厂,"116.728387,23.385011",公司企业;公司;冶金化工,龙湖区,衡山中街新利大厦,116.728387,23.385011
19,嘉彩UV印刷加工厂,"116.728963,23.387513",公司企业;公司;冶金化工,龙湖区,衡山路东二街15号,116.728963,23.387513
20,汕头市恒德绣花厂,"116.725847,23.385658",公司企业;公司;冶金化工,龙湖区,衡山路华生大厦2楼,116.725847,23.385658
21,保健品厂,"116.725016,23.387066",公司企业;公司;冶金化工,龙湖区,龙祥街道衡山路66号琪雅大厦五楼保健品厂,116.725016,23.387066
22,不锈门厂,"116.724206,23.386242",公司企业;公司;冶金化工,龙湖区,衡山路宏成大厦一楼,116.724206,23.386242
23,特力烘干机厂,"116.724552,23.401058",公司企业;公司;冶金化工,龙湖区,嵩山北路天信酒店东侧约40米,116.724552,23.401058
24,晟光印刷厂,"116.731030,23.387611",公司企业;公司;冶金化工,龙湖区,嵩山北路145号,116.73103,23.387611
25,天时万吉工厂,"116.705505,23.427374",公司企业;公司;冶金化工,龙湖区,万吉北街与珠峰北路交叉路口往东约80米,116.705505,23.427374
26,志贤石板厂,"116.727702,23.417440",公司企业;公司;冶金化工,龙湖区,汕樟路广东省汕头市农副产品批发中心市场东侧约200米,116.727702,23.41744
27,达源软膜灯箱厂,"116.744367,23.394402",公司企业;公司;冶金化工,龙湖区,龙新五街与泰山中路交叉路口往东南约200米,116.744367,23.394402
28,汕头恒业胶带厂,"116.757621,23.366519",公司企业;公司;冶金化工,龙湖区,金砂东路入口铁路边宏大楼4楼,116.757621,23.366519
29,小魏干果加工厂,"116.718432,23.423690",公司企业;公司;冶金化工,龙湖区,泰山北路汕头水果中心市场,116.718432,23.42369
30,裕昌纸塑印刷厂,"116.727499,23.429894",公司企业;公司;冶金化工,龙湖区,昌业街9号,116.727499,23.429894
31,金灏东五金加工厂,"116.743467,23.418215",公司企业;公司;冶金化工,龙湖区,外砂街道澄海区华新村新郁园鸿特毛衫3o2金灏东五金加工厂,116.743467,23.418215
32,汕头食用盐加工厂,"116.723901,23.434520",公司企业;公司;冶金化工,龙湖区,渔五路与415乡道交叉口西北400米,116.723901,23.43452
33,龙海化工,"116.782504,23.381111",公司企业;公司;冶金化工,龙湖区,金鸿公路15号立邦专卖店,116.782504,23.381111
34,汕头市雅裕门厂,"116.713743,23.443739",公司企业;公司;冶金化工,龙湖区,蔡社渔津北街与洋园路交叉路口往东南约190米,116.713743,23.443739
35,伟叔食品厂,"116.784430,23.389651",公司企业;公司;冶金化工,龙湖区,X063(昆仑山路),116.78443,23.389651
36,汕维金属剪压刨加工厂,"116.789187,23.383846",公司企业;公司;冶金化工,龙湖区,金新路与太湖路交叉路口往西北约290米,116.789187,23.383846
37,万丽厂,"116.753272,23.442480",公司企业;公司;冶金化工,龙湖区,金林路与蓬发路交叉口西80米,116.753272,23.44248
38,毛衫刷毛钉珠加工厂,"116.772987,23.416728",公司企业;公司;冶金化工,龙湖区,北兴路新溪中心小学北侧约130米,116.772987,23.416728
39,汕头市尚美乐食品厂,"116.710112,23.455180",公司企业;公司;冶金化工,龙湖区,洋园路旦家园学校东北侧约50米,116.710112,23.45518
40,威斯特服装厂,"116.719532,23.376576",公司企业;公司;冶金化工,龙湖区,练江中路h3栋4楼,116.719532,23.376576
41,明利日用塑料厂,"116.751030,23.440120",公司企业;公司;冶金化工,龙湖区,外砂街道蓬发大道工业区,116.75103,23.44012
42,外砂成建副食品厂,"116.727967,23.446746",公司企业;公司;冶金化工,龙湖区,G78(汕昆高速),116.727967,23.446746
43,海华印刷厂,"116.718793,23.410538",公司企业;公司;冶金化工,龙湖区,金汕樟北路海鸥大酒店隔壁新厂房A栋六楼,116.718793,23.410538
44,优秀服装厂,"116.719825,23.387095",公司企业;公司;冶金化工,龙湖区,科技东路11号二楼,116.719825,23.387095
45,恒俊鞋厂,"116.734710,23.394840",公司企业;公司;冶金化工,龙湖区,夏桂埔桂顺路19号3楼(原群星学校对面),116.73471,23.39484
46,广隆达毛衣厂,"116.787023,23.430987",公司企业;公司;冶金化工,龙湖区,外砂街道五香溪村四龙片中九巷8号,116.787023,23.430987
47,汕头龙珠水质净化厂,"116.752288,23.340539",公司企业;公司;冶金化工,龙湖区,中山东路249号(妈屿渡口旁),116.752288,23.340539
48,俊伟工艺厂,"116.745575,23.377062",公司企业;公司;冶金化工,龙湖区,珠江路珠业二街5号,116.745575,23.377062
49,南方制罐厂,"116.719849,23.408258",公司企业;公司;冶金化工,龙湖区,汕樟路尾凯达泓工业城内,116.719849,23.408258
50,虹桥变速机厂,"116.736780,23.371124",公司企业;公司;冶金化工,龙湖区,春华路,116.73678,23.371124
51,津港染厂,"116.741725,23.430641",公司企业;公司;冶金化工,龙湖区,凤华路中国石油(华达加油站)西北侧约160米,116.741725,23.430641
52,嘉源洗熨厂,"116.762492,23.443046",公司企业;公司;冶金化工,龙湖区,外砂镇李厝陇源工业区(诒乐幼儿园隔壁),116.762492,23.443046
53,永大自动化非标设备厂,"116.786103,23.412003",公司企业;公司;冶金化工,龙湖区,三头路(上头合村附近),116.786103,23.412003
54,汕头市长盛贵电脑裥棉厂,"116.739108,23.395817",公司企业;公司;冶金化工,龙湖区,周厝e新联南街与西宁路交界处,116.739108,23.395817
55,敬盛鱼露厂,"116.751948,23.443189",公司企业;公司;冶金化工,龙湖区,金林路锦骏虹Z湾-西区西侧约190米,116.751948,23.443189
56,汕头市龙湖区彦锋肉制品厂,"116.780512,23.430346",公司企业;公司;冶金化工,龙湖区,彦锋肉制品厂,116.780512,23.430346
57,汕头市金砂化工厂有限公司,"116.709924,23.428104",公司企业;公司;冶金化工,龙湖区,万吉工业区海河路,116.709924,23.428104
58,明发塑胶厂,"116.731817,23.405849",公司企业;公司;冶金化工,龙湖区,汕汾路95号,116.731817,23.405849
59,汕头市中稀金属实业有限公司,"116.702163,23.426088",公司企业;公司;冶金化工,龙湖区,万吉工业区沿江北路10号,116.702163,23.426088
60,汕头市纳川石化有限公司,"116.718195,23.367022",公司企业;公司;冶金化工,龙湖区,金砂路101号长荣大厦8层B2,116.718195,23.367022
61,广东省汕头市格利化工有限公司,"116.743919,23.366313",公司企业;公司;冶金化工,龙湖区,金砂东路丰泽庄西区78栋,116.743919,23.366313
62,中国化工轻工总公司汕头化工联合公司,"116.727549,23.367638",公司企业;公司;冶金化工,龙湖区,天山南路15号附近,116.727549,23.367638
63,汕头市铭丰隆化工有限公司,"116.733031,23.379927",公司企业;公司;冶金化工,龙湖区,长江路70-3号附近,116.733031,23.379927
64,中铁隧道集团汕头苏埃通道工程北岸分部钢筋加工厂,"116.725414,23.357219",公司企业;公司;冶金化工,龙湖区,海湾隧道丹阳庄金银岛香榭公寓西侧约70米,116.725414,23.357219
65,公元威光化工公司,"116.716308,23.368584",公司企业;公司;冶金化工,龙湖区,迎宾路4号建设大厦14层,116.716308,23.368584
66,西陇化工南区,"116.688729,23.408798",公司企业;公司;冶金化工,金平区,岐山街道潮汕路93号,116.688729,23.408798
67,南粤冶金,"116.684624,23.395274",公司企业;公司;冶金化工,金平区,潮汕路147号,116.684624,23.395274
68,汕头东风印刷股份有限公司-E厂,"116.673945,23.40002",公司企业;公司;冶金化工,金平区,岐山街道潮汕路金园工业区,116.673945,23.40002
69,市三峰化工有限公司,"116.677230,23.379691",公司企业;公司;冶金化工,金平区,大学路9号,116.67723,23.379691
70,金湖化工,"116.698221,23.374545",公司企业;公司;冶金化工|购物服务;家居建材市场;建材五金市场,金平区,金湖路97号之8,116.698221,23.374545
71,一行化工,"116.654897,23.399466",公司企业;公司;冶金化工,金平区,大学路180号101铺面,116.654897,23.399466
72,彩捷卷闸材料厂,"116.667951,23.393569",公司企业;公司;冶金化工,金平区,金兴路草蕴9A片区后面2号,116.667951,23.393569
73,汕头市景泓化工有限公司,"116.671546,23.366234",公司企业;公司;冶金化工,金平区,光华路39号1座,116.671546,23.366234
74,柴油汽油发电机,"116.679972,23.377505",公司企业;公司;冶金化工,金平区,潮汕路55号农业机械总公司大门旁,116.679972,23.377505
75,渔网线二厂,"116.699914,23.379608",公司企业;公司;冶金化工,金平区,金砂街道蛇针路十一号,116.699914,23.379608
76,汕头市大丰冷冻厂,"116.687105,23.375267",公司企业;公司;冶金化工,金平区,金湖路53号,116.687105,23.375267
77,汕头市华元化工新材料有限公司,"116.698205,23.359348",公司企业;公司;冶金化工,金平区,中山中路91号101附近,116.698205,23.359348
78,骏海火锅沙茶调味厂,"116.671272,23.360869",公司企业;公司;冶金化工,金平区,乌桥二马路59号,116.671272,23.360869
79,阿锐食品加工厂,"116.622246,23.389038",公司企业;公司;冶金化工,金平区,牛田洋道路金场西街中段大场西边,116.622246,23.389038
80,印制板1厂,"116.706256,23.372243",公司企业;公司;冶金化工,金平区,兴业路21号超声电子集团,116.706256,23.372243
81,瑞宏五金厂,"116.676628,23.385901",公司企业;公司;冶金化工,金平区,金盛物流园,116.676628,23.385901
82,超声印刷板一厂,"116.705810,23.374110",公司企业;公司;冶金化工,金平区,兴业路21号超声电子集团,116.70581,23.37411
83,骏达五金加工厂,"116.685459,23.395800",公司企业;公司;冶金化工,金平区,寨头街建明工业城,116.685459,23.3958
84,润兴塑料模具厂,"116.697053,23.391580",公司企业;公司;冶金化工,金平区,护堤路121号厂内,116.697053,23.39158
85,粤通印刷厂,"116.662647,23.396501",公司企业;公司;冶金化工,金平区,大学路升平工业区金升五路吉祥工贸大厦,116.662647,23.396501
86,明嘉机械工厂,"116.679651,23.379277",公司企业;公司;冶金化工,金平区,潮汕路56号吉祥工业区内,116.679651,23.379277
87,华顺制版厂,"116.675118,23.389359",公司企业;公司;冶金化工,金平区,岐山街道潮汕路科技园金兴二路吉祥北郊工业区第14幢,116.675118,23.389359
88,育兴印刷厂,"116.675924,23.379807",公司企业;公司;冶金化工,金平区,大学路18号汕头制钉厂内,116.675924,23.379807
89,正泰工厂,"116.709252,23.396620",公司企业;公司;冶金化工,金平区,东桐街汕头市金禧中学西北侧约30米,116.709252,23.39662
90,广东润洁日化有限公司,"116.688987,23.403178",公司企业;公司;冶金化工,金平区,润洁日化,116.688987,23.403178
91,飞机模型厂,"116.703578,23.371135",公司企业;公司;冶金化工,金平区,金砂街道金园路二横二号,116.703578,23.371135
92,汕头市胶纸厂,"116.687404,23.414831",公司企业;公司;冶金化工,金平区,龙洲路汕头市岐山第二中学东侧约250米,116.687404,23.414831
93,汕头市东亚电器厂,"116.699360,23.367466",公司企业;公司;冶金化工,金平区,金砂路53号金凤城龙座5楼,116.69936,23.367466
94,汕头市华海船厂,"116.667720,23.355060",公司企业;公司;冶金化工,金平区,西堤路236号,116.66772,23.35506
95,华彩塑料工艺制品厂,"116.665492,23.417821",公司企业;公司;冶金化工,金平区,D江街道港美社区居民委员会胶池片上格东北面第6层,116.665492,23.417821
96,森亮玻璃厂,"116.676067,23.391699",公司企业;公司;冶金化工,金平区,岐山街道潮阳路岐山派出所隔壁,116.676067,23.391699
97,鑫玮钢化玻璃厂,"116.700181,23.415053",公司企业;公司;冶金化工,金平区,护堤路250号,116.700181,23.415053
98,顺丰塑料模具厂,"116.670092,23.365750",公司企业;公司;冶金化工,金平区,光华路34号家私厂内,116.670092,23.36575
99,龟山石场,"116.651232,23.419105",公司企业;公司;冶金化工,金平区,,116.651232,23.419105
100,同德服装厂,"116.676680,23.370630",公司企业;公司;冶金化工,金平区,光华路85号市陶瓷工艺公司2幢4层,116.67668,23.37063
101,陇心工业大为厂房,"116.690358,23.399394",公司企业;公司;冶金化工,金平区,寨头工业区,116.690358,23.399394
102,大千地毯厂,"116.690412,23.399410",公司企业;公司;冶金化工,金平区,岐山街道大路居委会大为厂房,116.690412,23.39941
103,莲鑫工艺品厂,"116.599079,23.420206",公司企业;公司;冶金化工,金平区,莲塘路8号,116.599079,23.420206
104,东芝阳木雕厂,"116.705252,23.402019",公司企业;公司;冶金化工,金平区,浮东村码头路8号东芝阳木雕厂,116.705252,23.402019
105,吉翔印刷有限公司,"116.700337,23.378086",公司企业;公司;冶金化工,金平区,金东街道党校路11号,116.700337,23.378086
106,亿荣塑料制品厂,"116.665024,23.409972",公司企业;公司;冶金化工,金平区,金陇村居委会旁,116.665024,23.409972
107,汕头市东阳塑胶厂,"116.702315,23.409199",公司企业;公司;冶金化工,金平区,护堤路191号,116.702315,23.409199
108,良济堂制药厂,"116.624561,23.407433",公司企业;公司;冶金化工,金平区,叠金工业区二路C3-4号,116.624561,23.407433
109,中元合板厂,"116.702766,23.389215",公司企业;公司;冶金化工,金平区,汕樟路与凤凰山路交界华侨停车场内,116.702766,23.389215
110,创新塑胶模具厂,"116.685172,23.386138",公司企业;公司;冶金化工,金平区,宫下中路六巷八号,116.685172,23.386138
111,蒙牛工厂,"116.687454,23.412439",公司企业;公司;冶金化工,金平区,月浦街道潮汕路138号二期厂房,116.687454,23.412439
112,粤兴厂,"116.701416,23.410212",公司企业;公司;冶金化工,金平区,护堤路195号,116.701416,23.410212
113,汕泰铝塑厂,"116.664146,23.410644",公司企业;公司;冶金化工,金平区,金陇中路19号,116.664146,23.410644
114,泉州市金玺堡门厂(潮汕直销中心),"116.687039,23.409934",公司企业;公司;冶金化工,金平区,揭东路龙光尚悦轩,116.687039,23.409934
115,西陇化工北区,"116.689355,23.410847",公司企业;公司;冶金化工,金平区,潮汕路汕头岐山汽车客运站东侧约130米,116.689355,23.410847
116,汕头市金平区互通印刷厂,"116.703052,23.400674",公司企业;公司;冶金化工,金平区,汕樟路(浩正南侧约40米),116.703052,23.400674
117,汕头市N平区洗涤化工公司,"116.670571,23.352707",公司企业;公司;冶金化工,金平区,安平路与德兴路交叉口东北20米,116.670571,23.352707
118,汕头市金平区华创服装厂,"116.704274,23.391188",公司企业;公司;冶金化工,金平区,西华路5号,116.704274,23.391188
119,汕头市联胜化工厂有限公司,"116.675804,23.392626",公司企业;公司;冶金化工,金平区,潮汕路金园工业城5A2-2,116.675804,23.392626
120,汕头市金平区D浦酿酒厂,"116.640102,23.393473",公司企业;公司;冶金化工,金平区,D济南路汕头市D济中学南侧约60米,116.640102,23.393473
121,宝瑞食品有限公司外洋围厂,"116.675120,23.422804",公司企业;公司;冶金化工,金平区,G78汕昆高速旁,116.67512,23.422804
122,汕头市莲塘化工厂有限公司,"116.596909,23.423868",公司企业;公司;冶金化工,金平区,大学路307号,116.596909,23.423868
123,汕头市金平区华宇玻璃制品厂,"116.694403,23.380346",公司企业;公司;冶金化工,金平区,北华路13号,116.694403,23.380346
124,新乡东路东20(七彩星服装厂),"116.696660,23.384674",公司企业;公司;冶金化工,金平区,新乡北路南一巷汕头市金平区私立广厦学校(东墩校区)东侧,116.69666,23.384674
125,汕头市金平区龙光化工有限公司,"116.687089,23.371177",公司企业;公司;冶金化工,金平区,护堤路22号-10、11,116.687089,23.371177
126,汕头市金平区自强塑料包装厂,"116.690229,23.406341",公司企业;公司;冶金化工,金平区,东丰机械厂对面第12号铺,116.690229,23.406341
127,汕头市金平区B力塑料模具厂,"116.698393,23.405073",公司企业;公司;冶金化工,金平区,岐山陇头南北中路一横北侧2-2,116.698393,23.405073
128,汕头市金平区恒越纸塑包装厂,"116.693775,23.424220",公司企业;公司;冶金化工,金平区,月浦工业区大港路8号,116.693775,23.42422
129,汕头市金平区成田启发印刷厂,"116.618623,23.414643",公司企业;公司;冶金化工,金平区,大学路281号2幢,116.618623,23.414643
130,明呈钢结构有限公司钢结构工厂,"116.692502,23.373571",公司企业;公司;冶金化工,金平区,广东省汕头市金平区金湖,116.692502,23.373571
131,科露雅香精香料实业有限公司,"116.680864,23.398427",公司企业;公司;冶金化工,金平区,金园工业城12-08片区,116.680864,23.398427
132,汕头华兴冶金设备股份有限公司,"116.635959,23.40498",公司企业;公司;冶金化工,金平区,荣桔路,116.635959,23.40498
133,伊斯缇,"116.704948,23.390624",公司企业;公司;冶金化工,金平区,华山北路浮西工业园1号厂区,116.704948,23.390624
134,广东诺克电气科技有限公司D中厂,"116.658884,23.407109",公司企业;公司;冶金化工,金平区,港美路广大印刷材料实业公司D浦分厂,116.658884,23.407109
135,汕头市金平区固彩五金静电喷涂厂,"116.682762,23.396709",公司企业;公司;冶金化工,金平区,金发五路汕头嘉达大酒店西北侧约110米,116.682762,23.396709
136,汕头市韩江化工原料有限公司,"116.698232,23.420754",公司企业;公司;冶金化工,金平区,护堤路289号,116.698232,23.420754
137,广东省汕头市金平区岐山街道西陇中街8号之一厂,"116.689614,23.408720",公司企业;公司;冶金化工,金平区,西陇中街8号,116.689614,23.40872
138,正峰酒厂(马窖门市部),"116.716551,23.270398",公司企业;公司;冶金化工,濠江区,大众路与海星社区田新路交叉路口往西南约240米,116.716551,23.270398
139,多源工社合兴工艺厂,"116.756723,23.268465",公司企业;公司;冶金化工,濠江区,广澳街道埭头(多原谷社),116.756723,23.268465
140,嘉成塑料厂,"116.715778,23.287592",公司企业;公司;冶金化工,濠江区,西墩村大园工业区2排,116.715778,23.287592
141,光辉玻璃厂,"116.684593,23.261343",公司企业;公司;冶金化工,濠江区,岗背工业区内,116.684593,23.261343
142,三联鞋厂,"116.758129,23.266679",公司企业;公司;冶金化工,濠江区,埭头村福南街30号,116.758129,23.266679
143,全顺纸板厂,"116.760798,23.254568",公司企业;公司;冶金化工,濠江区,广澳街道大蔚工业区,116.760798,23.254568
144,珠浦厂房,"116.681124,23.294533",公司企业;公司;冶金化工,濠江区,珠浦医院旁,116.681124,23.294533
145,汕头市濠江区青林工艺厂,"116.736884,23.273300",公司企业;公司;冶金化工,濠江区,S337(磊广路),116.736884,23.2733
146,广东艺源建设有限公司厂区,"116.679294,23.298851",公司企业;公司;冶金化工,濠江区,S337(磊广路),116.679294,23.298851
147,汕头市濠江区濠明水泥制品厂,"116.677699,23.301646",公司企业;公司;冶金化工,濠江区,头村路,116.677699,23.301646
148,实宝塑胶有限公司塑料制品厂,"116.704737,23.276750",公司企业;公司;冶金化工,濠江区,保税区南门E1路康家宝A09-2,116.704737,23.27675
149,汕头市鑫源化工科技有限公司,"116.68581,23.261516",公司企业;公司;冶金化工,濠江区,河中路(西段)50号(鑫源科技园),116.68581,23.261516
150,珍福石化,"116.65346,23.323412",公司企业;公司;冶金化工,濠江区,C石街道工业区,116.65346,23.323412
151,友情精细化工实业有限公司,"116.60782,23.275318",公司企业;公司;冶金化工,潮阳区,平北工业区中街9号,116.60782,23.275318
152,凯信化工,"116.403979,23.340825",公司企业;公司;冶金化工,潮阳区,东升新世界11栋2号铺面,116.403979,23.340825
153,肥姐不锈钢水塔厂,"116.445770,23.298911",公司企业;公司;冶金化工,潮阳区,,116.44577,23.298911
154,建海不锈钢工艺厂,"116.472437,23.247584",公司企业;公司;冶金化工,潮阳区,新和惠路中寨工业区东侧约90米,116.472437,23.247584
155,美尼芬针织内衣厂,"116.432119,23.336975",公司企业;公司;冶金化工,潮阳区,谷饶镇大坑东门外一区一巷1号,116.432119,23.336975
156,华胜材料包装厂,"116.469569,23.274949",公司企业;公司;冶金化工,潮阳区,和平镇潮联工业区中路4座,116.469569,23.274949
157,华彩化工,"116.528402,23.252854",公司企业;公司;冶金化工,潮阳区,林八港路新路口,116.528402,23.252854
158,源记水泥管厂,"116.600043,23.287770",公司企业;公司;冶金化工,潮阳区,棉北街道潮揭路,116.600043,23.28777
159,宏通纸厂,"116.615394,23.241215",公司企业;公司;冶金化工,潮阳区,城南工业区大南宏通纸厂,116.615394,23.241215
160,裕生发厂,"116.579483,23.268471",公司企业;公司;冶金化工,潮阳区,风吹岩左侧,116.579483,23.268471
161,丹丽无缝厂,"116.560705,23.250032",公司企业;公司;冶金化工,潮阳区,社道路寨外幼儿园南侧约210米,116.560705,23.250032
162,振伟石板财加工厂,"116.628995,23.207621",公司企业;公司;冶金化工,潮阳区,G228汕头市潮阳一中明光学校西侧约50米,116.628995,23.207621
163,交通石油,"116.463302,23.450459",公司企业;公司;冶金化工,潮阳区,,116.463302,23.450459
164,芸峰床垫厂,"116.506799,23.371167",公司企业;公司;冶金化工,潮阳区,潮揭路西胪竹林小学西北侧约150米,116.506799,23.371167
165,揭阳博畅石材装饰厂,"116.506339,23.372826",公司企业;公司;冶金化工,潮阳区,潮揭路,116.506339,23.372826
166,友龙沙石场,"116.509443,23.380294",公司企业;公司;冶金化工,潮阳区,西二上园尾沙石场内,116.509443,23.380294
167,瑞祥门厂,"116.493242,23.410832",公司企业;公司;冶金化工,潮阳区,潮揭路,116.493242,23.410832
168,泽贵内衣加工厂,"116.464589,23.331411",公司企业;公司;冶金化工,潮阳区,内f村,116.464589,23.331411
169,城泰钮扣加工厂,"116.423314,23.362758",公司企业;公司;冶金化工,潮阳区,饶中路奕胜建材东侧约170米,116.423314,23.362758
170,雅黛思针织内衣厂,"116.420630,23.342165",公司企业;公司;冶金化工,潮阳区,谷贵路与华里街交叉路口往东约170米,116.42063,23.342165
171,新美红木厂,"116.482340,23.223796",公司企业;公司;冶金化工,潮阳区,Y335新龙小学分校北侧约160米,116.48234,23.223796
172,东之纯针织内衣厂,"116.417149,23.344733",公司企业;公司;冶金化工,潮阳区,谷贵路华里菜市场东北侧约290米,116.417149,23.344733
173,恒心米厂,"116.473616,23.246157",公司企业;公司;冶金化工,潮阳区,和平镇金乐休闲会所斜对面的恒心米厂,116.473616,23.246157
174,佰利星厂,"116.501445,23.260157",公司企业;公司;冶金化工,潮阳区,和平镇白石小学旁边,116.501445,23.260157
175,任源泰爆款直销工厂,"116.419439,23.335332",公司企业;公司;冶金化工,潮阳区,谷贵路与前进路交叉路口往西约110米,116.419439,23.335332
176,天鸿内衣加工厂,"116.458554,23.397545",公司企业;公司;冶金化工,潮阳区,,116.458554,23.397545
177,杰盛纺织厂,"116.417590,23.357864",公司企业;公司;冶金化工,潮阳区,利丰路丰盛发酒店(谷饶店)西侧约40米,116.41759,23.357864
178,雅茹刺绣(厂区),"116.466743,23.283949",公司企业;公司;冶金化工,潮阳区,,116.466743,23.283949
179,美瑞儿针织内衣厂,"116.415949,23.336553",公司企业;公司;冶金化工,潮阳区,创大路汾芳王内衣实业有限公司,116.415949,23.336553
180,新兴雅染厂(办事处),"116.416860,23.334761",公司企业;公司;冶金化工,潮阳区,前进路小贵族双语幼儿园北侧约230米,116.41686,23.334761
181,东兴针织内衣厂,"116.433555,23.340934",公司企业;公司;冶金化工,潮阳区,谷饶镇大坑村三合路尾,116.433555,23.340934
182,钗发针织内衣厂,"116.403461,23.348581",公司企业;公司;冶金化工,潮阳区,谷饶欢乐幼儿园西北侧约120米,116.403461,23.348581
183,佳美印染转运站,"116.421443,23.360619",公司企业;公司;冶金化工,潮阳区,贵屿镇谷饶饶中路368号,116.421443,23.360619
184,铜盂焕泰包装袋厂,"116.444111,23.288925",公司企业;公司;冶金化工,潮阳区,兴富路,116.444111,23.288925
185,艺丰刀模厂,"116.400678,23.361849",公司企业;公司;冶金化工,潮阳区,中泰十巷绿茵幼儿园西侧约180米,116.400678,23.361849
186,博创内衣厂,"116.418909,23.362238",公司企业;公司;冶金化工,潮阳区,谷关路奕胜建材西侧约270米,116.418909,23.362238
187,鹏腾内衣厂,"116.400146,23.340096",公司企业;公司;冶金化工,潮阳区,S237金新花园酒店南侧约110米,116.400146,23.340096
188,联华发帖棉厂,"116.429053,23.327072",公司企业;公司;冶金化工,潮阳区,谷贵路(捷升内衣有限公司),116.429053,23.327072
189,嘉裕泰针织内衣厂,"116.427337,23.353398",公司企业;公司;冶金化工,潮阳区,阿涛五金装饰西北侧约220米,116.427337,23.353398
190,祥宝五金塑料制品厂,"116.393064,23.492878",公司企业;公司;冶金化工,潮阳区,金灶涂寨渠南路,116.393064,23.492878
191,杰升隆无痕点胶内衣厂,"116.395123,23.358234",公司企业;公司;冶金化工,潮阳区,谷饶镇东星工业区,116.395123,23.358234
192,东臻门厂,"116.429096,23.319893",公司企业;公司;冶金化工,潮阳区,S237怡利恒丰织造有限公司,116.429096,23.319893
193,佳美婷内衣厂,"116.392403,23.352248",公司企业;公司;冶金化工,潮阳区,谷贵路与兴业路交叉口东南约200米,116.392403,23.352248
194,新尔纳塑胶厂,"116.392689,23.369960",公司企业;公司;冶金化工,潮阳区,,116.392689,23.36996
195,鑫发针织内衣厂,"116.439171,23.385014",公司企业;公司;冶金化工,潮阳区,埔谷线与深洋大道(东)交叉口东360米,116.439171,23.385014
196,汕头市茂灿针织内衣厂,"116.414757,23.334637",公司企业;公司;冶金化工,潮阳区,前进路桂香园工业区,116.414757,23.334637
197,谷饶镇龙兴厂,"116.409871,23.334210",公司企业;公司;冶金化工,潮阳区,前进路凯里亚德酒店汕头潮阳高铁站店西侧约210米,116.409871,23.33421
198,卡蒂舒缘无缝内衣厂,"116.424268,23.343777",公司企业;公司;冶金化工,潮阳区,华光乡,116.424268,23.343777
199,广源达无缝内衣厂,"116.415338,23.334479",公司企业;公司;冶金化工,潮阳区,谷饶镇华里工业区宝宝实业,116.415338,23.334479
200,华祥内衣厂,"116.426043,23.338773",公司企业;公司;冶金化工,潮阳区,前进路汕头市忠信针织实业公司,116.426043,23.338773
201,汕头潮阳外四不锈钢加工厂,"116.653845,23.217070",公司企业;公司;冶金化工,潮阳区,湖边村1巷旁,116.653845,23.21707
202,嘉华兴内衣厂,"116.419847,23.357674",公司企业;公司;冶金化工,潮阳区,谷饶镇利丰路12号,116.419847,23.357674
203,亿璇佳美无缝厂,"116.383901,23.346562",公司企业;公司;冶金化工,潮阳区,东洋工业区A区北一街,116.383901,23.346562
204,老尾激光厂,"116.397476,23.327040",公司企业;公司;冶金化工,潮阳区,,116.397476,23.32704
205,泽伟内衣厂,"116.431148,23.375048",公司企业;公司;冶金化工,潮阳区,饶新路与进出站路交叉口东500米,116.431148,23.375048
206,亮易典针织内衣厂,"116.433233,23.340638",公司企业;公司;冶金化工,潮阳区,谷饶镇大坑三合三区六巷4号101号,116.433233,23.340638
207,盛华刺绣厂,"116.430209,23.342424",公司企业;公司;冶金化工,潮阳区,谷饶镇大坑村三合路中段,116.430209,23.342424
208,东之纯针织内衣厂,"116.410374,23.335634",公司企业;公司;冶金化工,潮阳区,创大路(桂香园工业区西侧),116.410374,23.335634
209,龙彩针织内衣厂,"116.382275,23.343505",公司企业;公司;冶金化工,潮阳区,贵屿镇南阳东洋工业区娘仔堂福东厂背面,116.382275,23.343505
210,创胜无缝内衣厂,"116.424847,23.341921",公司企业;公司;冶金化工,潮阳区,谷饶镇泰和街17号,116.424847,23.341921
211,溪尾育宏(一工厂),"116.406795,23.329682",公司企业;公司;冶金化工,潮阳区,谷饶溪美小学西侧约200米,116.406795,23.329682
212,维佳芬内衣厂,"116.432812,23.276357",公司企业;公司;冶金化工,潮阳区,新兴路吉祥红木家私(二厂)东北侧约60米,116.432812,23.276357
213,时时亮电器厂,"116.437129,23.387285",公司企业;公司;冶金化工,潮阳区,鼓楼镇径脚村,116.437129,23.387285
214,跃升无痕内衣厂,"116.407363,23.290764",公司企业;公司;冶金化工,潮阳区,草南路(溪东商品楼北侧约100米),116.407363,23.290764
215,硕果针织内衣厂,"116.415753,23.336144",公司企业;公司;冶金化工,潮阳区,前进路汾芳王内衣实业有限公司,116.415753,23.336144
216,谷饶陈氏花边加工厂,"116.416322,23.373588",公司企业;公司;冶金化工,潮阳区,谷饶镇深洋文化室一巷20号102号,116.416322,23.373588
217,松兴盛内衣厂,"116.421765,23.361214",公司企业;公司;冶金化工,潮阳区,谷饶镇饶中路华信数码后座,116.421765,23.361214
218,茂华染厂,"116.428530,23.328016",公司企业;公司;冶金化工,潮阳区,谷贵路,116.42853,23.328016
219,雅一生针织内衣厂,"116.433082,23.388623",公司企业;公司;冶金化工,潮阳区,谷饶镇深洋村德财路,116.433082,23.388623
220,生泰发针织内衣厂,"116.397167,23.350944",公司企业;公司;冶金化工,潮阳区,谷饶镇东明村帕兰香后面第三栋,116.397167,23.350944
221,南阳阿细石厂,"116.378861,23.348251",公司企业;公司;冶金化工,潮阳区,谷贵公路华侨城幼儿园东南侧,116.378861,23.348251
222,嘉美悦内衣厂,"116.419968,23.356252",公司企业;公司;冶金化工,潮阳区,谷饶镇香港城,116.419968,23.356252
223,顺发棉碗厂,"116.383822,23.350569",公司企业;公司;冶金化工,潮阳区,谷贵公路燕乐幼儿园东南侧约180米,116.383822,23.350569
224,奇展耳机加工厂,"116.394926,23.379740",公司企业;公司;冶金化工,潮阳区,顺兴街,116.394926,23.37974
225,海门镇综合厂,"116.612617,23.183843",公司企业;公司;冶金化工,潮阳区,环海路莲花峰小学西侧约230米,116.612617,23.183843
226,头桥羊毛厂,"116.482688,23.255886",公司企业;公司;冶金化工,潮阳区,平英路(潮阳区和平医院东北侧约250米),116.482688,23.255886
227,太美服装厂,"116.472779,23.265694",公司企业;公司;冶金化工,潮阳区,和平镇和铺村铺中路水泥厂后面,116.472779,23.265694
228,到秀彩绣花厂,"116.467883,23.249071",公司企业;公司;冶金化工,潮阳区,和平镇广汕公路中寨工业区对面亿源塑料有限公司后面,116.467883,23.249071
229,谷铭印刷厂,"116.481603,23.261690",公司企业;公司;冶金化工,潮阳区,福昆线和园建材东侧约150米,116.481603,23.26169
230,汕头市步步通电器厂,"116.505531,23.215567",公司企业;公司;冶金化工,潮阳区,五和乡,116.505531,23.215567
231,国潼吸塑厂,"116.490684,23.220343",公司企业;公司;冶金化工,潮阳区,和平镇下厝后树脚路口,116.490684,23.220343
232,星之雅厂,"116.470057,23.238053",公司企业;公司;冶金化工,潮阳区,下寨和西中路与和西新村十六街交叉口东140米,116.470057,23.238053
233,美逸内衣厂,"116.428588,23.328840",公司企业;公司;冶金化工,潮阳区,谷贵路东协成内衣厂西北,116.428588,23.32884
234,港香婷内衣厂,"116.422158,23.328832",公司企业;公司;冶金化工,潮阳区,兴和路义华h园西侧约140米,116.422158,23.328832
235,铜盂春蕾厂,"116.433395,23.277418",公司企业;公司;冶金化工,潮阳区,环南路吉祥红木h三厂东北侧约170米,116.433395,23.277418
236,联饶印刷厂,"116.411488,23.357447",公司企业;公司;冶金化工,潮阳区,谷饶镇谷华路155号,116.411488,23.357447
237,谷饶新兴隆针织内衣厂,"116.425654,23.362586",公司企业;公司;冶金化工,潮阳区,谷饶镇官田村,116.425654,23.362586
238,利美达内衣厂,"116.416456,23.365062",公司企业;公司;冶金化工,潮阳区,谷饶镇谷关路337号,116.416456,23.365062
239,新京通磁带厂,"116.482748,23.207912",公司企业;公司;冶金化工,潮阳区,和平镇新龙南洋工业区,116.482748,23.207912
240,汕头市雄发彩印厂,"116.432101,23.282963",公司企业;公司;冶金化工,潮阳区,兴富路(铜盂派出所北侧),116.432101,23.282963
241,永联胜内衣厂,"116.407445,23.359618",公司企业;公司;冶金化工,潮阳区,谷饶镇茂一工业区西10号,116.407445,23.359618
242,鸿鑫贴里厂,"116.428036,23.326090",公司企业;公司;冶金化工,潮阳区,谷饶镇大坑村裕德厂旁边,116.428036,23.32609
243,华诺塑料制品厂,"116.420089,23.291881",公司企业;公司;冶金化工,潮阳区,兴富西路361号附近,116.420089,23.291881
244,俏丝芬娜内衣厂,"116.416355,23.366086",公司企业;公司;冶金化工,潮阳区,谷饶镇仙坡桥头将军洋工业区,116.416355,23.366086
245,新波工业区明亮贴棉厂,"116.415568,23.362820",公司企业;公司;冶金化工,潮阳区,谷饶镇仙波维也纳酒店前面鹏俊内衣厂西边,116.415568,23.36282
246,华安经编新厂,"116.423938,23.338231",公司企业;公司;冶金化工,潮阳区,前进路新喜纺织有限公司,116.423938,23.338231
247,维尚娜洽成厂,"116.404593,23.349092",公司企业;公司;冶金化工,潮阳区,谷贵路与饶西路交叉路口往西南约100米,116.404593,23.349092
248,汇海五金厂,"116.401981,23.361414",公司企业;公司;冶金化工,潮阳区,谷饶镇横山村,116.401981,23.361414
249,新利海厂,"116.407417,23.359319",公司企业;公司;冶金化工,潮阳区,利丰路东明菜市场东侧约110米,116.407417,23.359319
250,灿漫内衣厂,"116.410984,23.404945",公司企业;公司;冶金化工,潮阳区,谷饶镇新寮坛尾五巷10号,116.410984,23.404945
251,晋荣内衣厂,"116.400603,23.353744",公司企业;公司;冶金化工,潮阳区,侨星东路谷饶启德实验幼儿园东侧约170米,116.400603,23.353744
252,创茂珠饰厂,"116.367738,23.310070",公司企业;公司;冶金化工,潮阳区,贵屿镇仙彭村老柑园第九街,116.367738,23.31007
253,翁源鹏厂,"116.391653,23.354343",公司企业;公司;冶金化工,潮阳区,谷饶镇东明村红绿灯路口千年马隔壁,116.391653,23.354343
254,鹏越内衣厂,"116.360198,23.352788",公司企业;公司;冶金化工,潮阳区,贵屿镇南阳山前村,116.360198,23.352788
255,新文电器厂,"116.333851,23.316409",公司企业;公司;冶金化工,潮阳区,新光南路桃源初级中学西南侧约40米,116.333851,23.316409
256,汕头市潮阳区海门畅易灯饰厂,"116.626849,23.214098",公司企业;公司;冶金化工,潮阳区,海门高速路出口右侧,116.626849,23.214098
257,汕头市捷欣电脑机绣厂,"116.467658,23.246657",公司企业;公司;冶金化工,潮阳区,和中西路中寨工业区西南侧约90米,116.467658,23.246657
258,汕头市盛豪服装厂,"116.470799,23.239242",公司企业;公司;冶金化工,潮阳区,下寨和西路与和西新村十六街交叉口东260米,116.470799,23.239242
259,四季新针织内衣厂,"116.417739,23.336967",公司企业;公司;冶金化工,潮阳区,华光工业区中5区,116.417739,23.336967
260,鹏骏针织内衣厂,"116.416495,23.362976",公司企业;公司;冶金化工,潮阳区,谷饶镇仙波工业区,116.416495,23.362976
261,雄昌无缝内衣厂,"116.382854,23.350581",公司企业;公司;冶金化工,潮阳区,贵屿镇南阳联堤工业区3路雄昌针织厂,116.382854,23.350581
262,朝阳市成回全麒麟床垫厂,"116.481690,23.203802",公司企业;公司;冶金化工,潮阳区,惠公路鸿泰建材旁,116.48169,23.203802
263,贵屿美乐文胸针织内衣厂,"116.339738,23.327255",公司企业;公司;冶金化工,潮阳区,贵屿镇北林泰凌西区路北七街30号,116.339738,23.327255
264,楠楠服装厂,"116.596335,23.265006",公司企业;公司;冶金化工,潮阳区,棉北街道牛头山直路抽纱公司内一幢,116.596335,23.265006
265,伊遇针织内衣厂(下洋分厂),"116.368412,23.335671",公司企业;公司;冶金化工,潮阳区,059县道与联堤下洋新兴区西一路交叉口南180米,116.368412,23.335671
266,泗美村老寨桥头加工粉碎厂,"116.354515,23.293979",公司企业;公司;冶金化工,潮阳区,贵屿镇泗美村老寨桥头,116.354515,23.293979
267,汕头市潮阳区谷饶伟俊内衣厂,"116.418395,23.394950",公司企业;公司;冶金化工,潮阳区,谷金路双石幼儿园南侧约240米,116.418395,23.39495
268,长红三轮车厂(天宫医院西北),"116.384220,23.353342",公司企业;公司;冶金化工,潮阳区,贵屿镇南阳工业区,116.38422,23.353342
269,汕头市潮阳区金灶梦彩芝内衣厂,"116.392977,23.451914",公司企业;公司;冶金化工,潮阳区,金灶镇金溪金新街91号,116.392977,23.451914
270,汕头市潮阳区棉北励霸服装厂,"116.605570,23.267555",公司企业;公司;冶金化工,潮阳区,老水运三楼,116.60557,23.267555
271,汕头市潮阳区谷饶宏武纺织厂,"116.422097,23.361766",公司企业;公司;冶金化工,潮阳区,谷饶镇饶中路官田段中段东侧妈宫旁,116.422097,23.361766
272,汕头市龙湖区一生爱宝贝内衣厂,"116.439889,23.337084",公司企业;公司;冶金化工,潮阳区,谷饶镇大坑村三合一区7巷2号,116.439889,23.337084
273,汕头市潮阳区谷饶好莱芬针织内衣厂,"116.417621,23.366449",公司企业;公司;冶金化工,潮阳区,饶新路维也纳酒店(潮阳高铁站店)东北侧约220米,116.417621,23.366449
274,溪美村(溪尾)萧氏(少和)联捆切割厂,"116.405908,23.328400",公司企业;公司;冶金化工,潮阳区,,116.405908,23.3284
275,汕头市潮阳区谷饶泰达妮针织内衣厂,"116.421140,23.366802",公司企业;公司;冶金化工,潮阳区,饶中路新伟建材西侧约180米,116.42114,23.366802
276,广业练江生态环境有限公司(和平三厂),"116.510525,23.212864",公司企业;公司;冶金化工,潮阳区,,116.510525,23.212864
277,汕头市潮阳区金灶镇金合美五金制品厂,"116.392193,23.450923",公司企业;公司;冶金化工,潮阳区,金溪西路与234省道交叉口东420米,116.392193,23.450923
278,汕头市荣和纺织有限公司(河陇工厂),"116.435245,23.313518",公司企业;公司;冶金化工,潮阳区,237省道东100米,116.435245,23.313518
279,永源金属有限公司,"116.378499,23.304580",公司企业;公司;冶金化工,潮阳区,贵屿镇龙港村过境路东,116.378499,23.30458
280,健佳不锈钢水塔厂,"116.310467,23.241542",公司企业;公司;冶金化工,潮南区,陈沙公路仙城第六小学西侧约220米,116.310467,23.241542
281,胪溪威爽第四分厂,"116.470776,23.216931",公司企业;公司;冶金化工,潮南区,胪岗镇溪头车站五千年文具厂旁,116.470776,23.216931
282,茵姿琪内衣厂,"116.321790,23.267219",公司企业;公司;冶金化工,潮南区,广祥路瓦窑小学西北侧约210米,116.32179,23.267219
283,新锦城绣花厂,"116.322196,23.216265",公司企业;公司;冶金化工,潮南区,沐安一巷与乐溪住宅区一巷交叉口东400米,116.322196,23.216265
284,钰烽绣花厂,"116.488568,23.156927",公司企业;公司;冶金化工,潮南区,陇田镇永安村牌旁,116.488568,23.156927
285,盛泰沙石场,"116.324267,23.290006",公司企业;公司;冶金化工,潮南区,西环路,116.324267,23.290006
286,欧楚坚沙石场,"116.312382,23.275367",公司企业;公司;冶金化工,潮南区,西环路中南大厦南侧约170米,116.312382,23.275367
287,仙仙加工厂,"116.338014,23.237052",公司企业;公司;冶金化工,潮南区,波溪镇西中寨南七巷26号,116.338014,23.237052
288,福田绣花厂,"116.454836,23.247668",公司企业;公司;冶金化工,潮南区,广汕路周凯迪工业园东南侧约150米,116.454836,23.247668
289,鑫发帐篷厂展销处,"116.328089,23.266870",公司企业;公司;冶金化工,潮南区,福昆线陈店永佳客运总站南侧约90米,116.328089,23.26687
290,创永新内裤厂,"116.417100,23.256926",公司企业;公司;冶金化工,潮南区,峡山祥发路灰东洋工业区,116.4171,23.256926
291,溢丰塑料厂,"116.517143,23.134411",公司企业;公司;冶金化工,潮南区,G228(丹东线),116.517143,23.134411
292,金绣花边绣花厂,"116.435211,23.270323",公司企业;公司;冶金化工,潮南区,S14(汕湛高速),116.435211,23.270323
293,凯升牙刷厂,"116.409050,23.261073",公司企业;公司;冶金化工,潮南区,环城公路,116.40905,23.261073
294,长顺三合一盘带绣花厂,"116.435247,23.255229",公司企业;公司;冶金化工,潮南区,长虹路峡山街道寨外林小学东侧约160米,116.435247,23.255229
295,智利盛拉弯厂,"116.429896,23.236090",公司企业;公司;冶金化工,潮南区,峡新公路,116.429896,23.23609
296,东升水塔厂,"116.418895,23.223792",公司企业;公司;冶金化工,潮南区,新发路与中兴路交叉路口东北侧,116.418895,23.223792
297,杰凯服饰,"116.435333,23.235913",公司企业;公司;冶金化工,潮南区,泗联河陂大道29号家乐迪KTV对面,116.435333,23.235913
298,顺兴塑料制品厂,"116.462379,23.200978",公司企业;公司;冶金化工,潮南区,新民学校东北侧约280米,116.462379,23.200978
299,汕头市潮南区丰华纺织设备厂,"116.429438,23.243809",公司企业;公司;冶金化工,潮南区,金凤东路南海大酒店东南侧约270米,116.429438,23.243809
300,辉金氨纶厂,"116.438882,23.254485",公司企业;公司;冶金化工,潮南区,朝晖路,116.438882,23.254485
301,浩浩制袋厂,"116.423286,23.259146",公司企业;公司;冶金化工,潮南区,祥北路与广园路交叉路口南侧,116.423286,23.259146
302,依祥织带厂,"116.403888,23.275065",公司企业;公司;冶金化工,潮南区,司马浦镇仙港村佳友购物傍依祥织带厂,116.403888,23.275065
303,双友织领厂,"116.367877,23.248923",公司企业;公司;冶金化工,潮南区,S235(司英路),116.367877,23.248923
304,益丰风管厂,"116.530993,23.117975",公司企业;公司;冶金化工,潮南区,G228与学校路交叉路口往西北约90米,116.530993,23.117975
305,宏艺印花厂,"116.472460,23.187091",公司企业;公司;冶金化工,潮南区,西岐乡石路头治安岗,116.47246,23.187091
306,华河电线厂,"116.372159,23.251931",公司企业;公司;冶金化工,潮南区,司马浦镇司富华园桥头,116.372159,23.251931
307,佰龙服装厂,"116.402088,23.254156",公司企业;公司;冶金化工,潮南区,峡山街道广汕公路1514号,116.402088,23.254156
308,花娘子内衣厂,"116.408199,23.258634",公司企业;公司;冶金化工,潮南区,汕头市潮南实验学校北侧约200米,116.408199,23.258634
309,明源电器厂,"116.385345,23.258316",公司企业;公司;冶金化工,潮南区,司马浦镇栅内学校西测,116.385345,23.258316
310,安平乡红庙得发油厂,"116.345725,23.291811",公司企业;公司;冶金化工,潮南区,陈店镇港后村工业区,116.345725,23.291811
311,粤兴印花厂,"116.394198,23.256750",公司企业;公司;冶金化工,潮南区,北环大道美德楼北侧约80米,116.394198,23.25675
312,纸筒薄膜厂,"116.530785,23.118326",公司企业;公司;冶金化工,潮南区,G228与学校路交叉路口往西北约140米,116.530785,23.118326
313,鑫彩印刷厂,"116.414350,23.246184",公司企业;公司;冶金化工,潮南区,X060(金光南路),116.41435,23.246184
314,鑫杰绣品厂,"116.403035,23.275950",公司企业;公司;冶金化工,潮南区,葫芦市大街仙港小学东北侧约190米,116.403035,23.27595
315,新达锐门厂,"116.392715,23.201213",公司企业;公司;冶金化工,潮南区,金中路与金瓯路交叉路口往西北约140米,116.392715,23.201213
316,增辉旅游品加工厂,"116.389023,23.273006",公司企业;公司;冶金化工,潮南区,司马浦镇港美新寨外十三街4号,116.389023,23.273006
317,樱诗梦胸围厂,"116.330246,23.289584",公司企业;公司;冶金化工,潮南区,兴洋东一路与陈贵路交叉路口东侧,116.330246,23.289584
318,德利粘合厂,"116.327909,23.296140",公司企业;公司;冶金化工,潮南区,西环路,116.327909,23.29614
319,汕头市亿森吊粒厂,"116.368645,23.248106",公司企业;公司;冶金化工,潮南区,司马浦莲花深田肚洋,116.368645,23.248106
320,光盛门厂,"116.360509,23.281697",公司企业;公司;冶金化工,潮南区,工业大道,116.360509,23.281697
321,明生内衣厂,"116.318912,23.279559",公司企业;公司;冶金化工,潮南区,陈店镇美南村公园旁,116.318912,23.279559
322,伟盛花边厂,"116.402589,23.193717",公司企业;公司;冶金化工,潮南区,陈沙公路两英镇金纳王隔壁一楼,116.402589,23.193717
323,大洋电源壳制品厂,"116.346109,23.269256",公司企业;公司;冶金化工,潮南区,G324(福昆线),116.346109,23.269256
324,顺盛绣花厂,"116.357633,23.200709",公司企业;公司;冶金化工,潮南区,陈沙公路,116.357633,23.200709
325,汕头市佳文鹏线材厂,"116.353707,23.276145",公司企业;公司;冶金化工,潮南区,司马浦镇溪美朱村聚源路8座,116.353707,23.276145
326,展兴激光厂,"116.335363,23.214591",公司企业;公司;冶金化工,潮南区,英深路,116.335363,23.214591
327,金平模杯刀模厂,"116.323541,23.278884",公司企业;公司;冶金化工,潮南区,陈贵路中国邮政储蓄银行(陈贵支行)西南侧约180米,116.323541,23.278884
328,伊班路服装厂,"116.360553,23.207233",公司企业;公司;冶金化工,潮南区,永安路古厝小学北侧约230米,116.360553,23.207233
329,伊可慕内衣厂,"116.324197,23.278497",公司企业;公司;冶金化工,潮南区,兴学路潮南区陈店第一初级中学西侧约230米,116.324197,23.278497
330,优雅风情内衣厂,"116.313073,23.270266",公司企业;公司;冶金化工,潮南区,G324(福昆线),116.313073,23.270266
331,陈店沙石场,"116.306340,23.251037",公司企业;公司;冶金化工,潮南区,陈沙公路与普宁大道交叉路口西侧,116.30634,23.251037
332,文鑫冲压厂,"116.301730,23.261597",公司企业;公司;冶金化工,潮南区,,116.30173,23.261597
333,诗妍娜针织内衣厂,"116.307760,23.246867",公司企业;公司;冶金化工,潮南区,仙城镇老五乡下乡洋五巷9号,116.30776,23.246867
334,校绣花总厂,"116.315114,23.265877",公司企业;公司;冶金化工,潮南区,陈沙公路陈店镇人民政府南侧约180米,116.315114,23.265877
335,林氏薄膜厂,"116.305361,23.270317",公司企业;公司;冶金化工,潮南区,G324(宏兴热贴合厂对面的左手边),116.305361,23.270317
336,宏发复棉厂,"116.318975,23.244783",公司企业;公司;冶金化工,潮南区,仙城镇友北村四路工业区,116.318975,23.244783
337,妍滢琪内衣厂,"116.318563,23.243307",公司企业;公司;冶金化工,潮南区,仙城镇友北工业区,116.318563,23.243307
338,随风加工厂,"116.323880,23.208247",公司企业;公司;冶金化工,潮南区,仙城镇利陂村莲花地二巷,116.32388,23.208247
339,旭鹏服装厂,"116.513067,23.191103",公司企业;公司;冶金化工,潮南区,北环一路与东兴区东路交叉路口北侧,116.513067,23.191103
340,顺兴制袋厂,"116.462999,23.254008",公司企业;公司;冶金化工,潮南区,练南乡练南学校附近,116.462999,23.254008
341,仙家冰厂,"116.511618,23.169113",公司企业;公司;冶金化工,潮南区,陇田镇沙陇仙家村灰路头,116.511618,23.169113
342,梦丹露工厂,"116.418213,23.231443",公司企业;公司;冶金化工,潮南区,峡山街道下东浦丹凤路,116.418213,23.231443
343,乐生塑料文化用品厂,"116.428513,23.273762",公司企业;公司;冶金化工,潮南区,峡华路荣昌加油站西南侧约110米,116.428513,23.273762
344,九斗老染厂,"116.328375,23.276315",公司企业;公司;冶金化工,潮南区,兴学路潮南区陈店镇溪口小学西南侧约120米,116.328375,23.276315
345,魅力身段厂,"116.312584,23.266626",公司企业;公司;冶金化工,潮南区,新汕路文苑酒店(陈店店),116.312584,23.266626
346,伟源印刷厂,"116.393966,23.247771",公司企业;公司;冶金化工,潮南区,后河西区一巷,116.393966,23.247771
347,鸿达染厂,"116.544804,23.151309",公司企业;公司;冶金化工,潮南区,陇田印染工业区A4三楼,116.544804,23.151309
348,汉丰吸塑制品厂,"116.409039,23.252955",公司企业;公司;冶金化工,潮南区,城美路地兴苑东侧,116.409039,23.252955
349,盈兴洗染厂,"116.545745,23.150471",公司企业;公司;冶金化工,潮南区,陇田镇田心印染工业园通用厂房A3栋地下101室,116.545745,23.150471
350,缤罗兰内衣厂,"116.324474,23.288043",公司企业;公司;冶金化工,潮南区,溪北工业区,116.324474,23.288043
351,金美华内衣厂,"116.318911,23.280310",公司企业;公司;冶金化工,潮南区,中南路,116.318911,23.28031
352,荣利纺织厂,"116.378833,23.215848",公司企业;公司;冶金化工,潮南区,两英镇古溪乡工业区,116.378833,23.215848
353,彬艺水草厂,"116.344379,23.288250",公司企业;公司;冶金化工,潮南区,华港大道流仙工业区,116.344379,23.28825
354,金贤电源壳厂,"116.347100,23.273533",公司企业;公司;冶金化工,潮南区,溪西大道,116.3471,23.273533
355,金程床垫厂,"116.387255,23.224300",公司企业;公司;冶金化工,潮南区,两英镇后洋村,116.387255,23.2243
356,厝特水溶纸厂,"116.350128,23.201955",公司企业;公司;冶金化工,潮南区,陈沙公路,116.350128,23.201955
357,胜兴电器厂,"116.390754,23.258418",公司企业;公司;冶金化工,潮南区,葫芦市大街西洋综合市场东北侧约170米,116.390754,23.258418
358,美佳印刷厂,"116.473090,23.207920",公司企业;公司;冶金化工,潮南区,胪岗镇胪溪乡工业区工业大道西60号,116.47309,23.20792
359,汕头市天韵日化有限公司,"116.392853,23.256047",公司企业;公司;冶金化工,潮南区,广汕公路美德楼西侧约130米,116.392853,23.256047
360,陇田高埔寨后南中围冰厂,"116.519537,23.191980",公司企业;公司;冶金化工,潮南区,,116.519537,23.19198
361,汕头市森辉纺织(制线厂),"116.413202,23.242987",公司企业;公司;冶金化工,潮南区,峡山街道金凤路震威大厦东北200米,116.413202,23.242987
362,汕头市潮南区合胜绣品厂,"116.513283,23.162494",公司企业;公司;冶金化工,潮南区,陇田镇仙家村大路茆港路口边,116.513283,23.162494
363,汕头市华实日化有限公司,"116.387168,23.263865",公司企业;公司;冶金化工,潮南区,e美大道曼妮芬工业园西北侧约230米,116.387168,23.263865
364,万利隆化工,"116.424143,23.258068",公司企业;公司;冶金化工|购物服务;专卖店;专营店,潮南区,广祥路615-623号,116.424143,23.258068
365,汕头市旭光玻璃有限公司,"116.466777,23.177981",公司企业;公司;冶金化工,潮南区,成田镇家美村家一马沟尾工业区,116.466777,23.177981
366,汕头市奇利芳针织内衣厂,"116.324074,23.295695",公司企业;公司;冶金化工,潮南区,陈店镇内新村新光路,116.324074,23.295695
367,娇倩汕头市增达针织工艺厂,"116.321509,23.288789",公司企业;公司;冶金化工,潮南区,西环路吉祥幼儿园西北侧约180米,116.321509,23.288789
368,深圳市南山区燕梦姿内衣厂,"116.404128,23.249788",公司企业;公司;冶金化工,潮南区,峡山街道洋林工业区文昌园二巷17-18号,116.404128,23.249788
369,广东绿马精细化工有限公司,"116.487390,23.193025",公司企业;公司;冶金化工,潮南区,东成路潮南成田客运站西北侧约160米,116.48739,23.193025
370,汕头市潮南区美尔纸塑彩印厂,"116.381301,23.251791",公司企业;公司;冶金化工,潮南区,司马浦靳厝寨美尔纸塑彩印厂,116.381301,23.251791
371,汕头市潮南区陈店佐仕琪内衣厂,"116.334288,23.296924",公司企业;公司;冶金化工,潮南区,陈店镇浮草村向南二街,116.334288,23.296924
372,蕉岭县文福路亭(旋窑)联营水泥厂,"116.447081,23.265788",公司企业;公司;冶金化工,潮南区,长虹路东溪晓升中学西北侧约160米,116.447081,23.265788
373,汕头市潮南区峡山胡氏工艺制品厂,"116.445688,23.271248",公司企业;公司;冶金化工,潮南区,东环路华良大厦北侧约120米,116.445688,23.271248
374,汕头市潮南区峡山潮侨皮塑制品厂,"116.436507,23.241354",公司企业;公司;冶金化工,潮南区,峡山金都小区泗联大潮潮新南路1号,116.436507,23.241354
375,浙江瑞格印染机械办事处(厂家直销),"116.414061,23.257731",公司企业;公司;冶金化工,潮南区,拱桥广华路金苑小区北侧约80米,116.414061,23.257731
376,汕头市潮南区司马浦永佳旅游用品厂,"116.378649,23.257023",公司企业;公司;冶金化工,潮南区,仙港工业区舌桥路南七巷5号,116.378649,23.257023
377,汕头市潮南区司马浦港隆旅游用品厂,"116.362431,23.244851",公司企业;公司;冶金化工,潮南区,司马浦仙港乡新寨工业区,116.362431,23.244851
378,汕头市司马浦镇仙港东路合兴源塑料制品厂,"116.404894,23.274646",公司企业;公司;冶金化工,潮南区,葫芦市大街与仙港东路交叉路口往东约120米,116.404894,23.274646
379,龙波织业厂,"116.544518,23.151836",公司企业;公司;冶金化工,潮南区,G15(沈海高速),116.544518,23.151836
380,佳业装饰材料,"116.421790,23.248139",购物服务;家居建材市场;建材五金市场|公司企业;公司;冶金化工,潮南区,峡山街道金光南路25号,116.42179,23.248139
381,汕头市潮南区峡山源兴服装厂,"116.422266,23.210884",公司企业;公司;冶金化工,潮南区,峡山街道上家西南二十二巷19号,116.422266,23.210884
382,华兴化工,"116.504912,23.182017",公司企业;公司;冶金化工,潮南区,陇田镇和惠公路东仙乡路段东里路口边,116.504912,23.182017
383,龙云化工,"116.366781,23.273499",公司企业;公司;冶金化工,潮南区,S14汕湛高速与司马浦北立交交叉口西北180米,116.366781,23.273499
384,华信塑料模具厂,"116.800688,23.441497",公司企业;公司;冶金化工,澄海区,澄海区工业区兴业西2路1号,116.800688,23.441497
385,广州市东风化工实业有限公司,"116.762726,23.470156",公司企业;公司;冶金化工,澄海区,益民路附近,116.762726,23.470156
386,群腾五金玩具配件厂,"116.724308,23.530894",公司企业;公司;冶金化工,澄海区,上华镇上都路湖心工业区,116.724308,23.530894
387,春满石材加工厂,"116.729374,23.488261",公司企业;公司;冶金化工,澄海区,澄海公路澄海实验高级中学东侧约80米,116.729374,23.488261
388,澄海区新兴石材工艺厂,"116.729907,23.587457",公司企业;公司;冶金化工,澄海区,隆都镇宅头路口,116.729907,23.587457
389,宝华吸塑厂,"116.769512,23.479291",公司企业;公司;冶金化工,澄海区,广益街道324国道铭星酒楼后,116.769512,23.479291
390,启蒙积木有限工司二厂,"116.801054,23.440260",公司企业;公司;冶金化工,澄海区,兴业南路莱美工业区南四门东南侧约80米,116.801054,23.44026
391,澄海上华新兴酒厂,"116.718831,23.491831",公司企业;公司;冶金化工,澄海区,上华镇渡头工业区,116.718831,23.491831
392,彩虹印刷厂,"116.776263,23.460122",公司企业;公司;冶金化工,澄海区,凤翔街道东港路一横巷5号,116.776263,23.460122
393,浩鸿达喷印厂,"116.801923,23.442006",公司企业;公司;冶金化工,澄海区,澄海区莱美工业区,116.801923,23.442006
394,东翔印刷厂,"116.779274,23.467770",公司企业;公司;冶金化工,澄海区,东湖大道3巷尾,116.779274,23.46777
395,欣晖五金厂,"116.818833,23.426633",公司企业;公司;冶金化工,澄海区,四合村路下园小学东南侧约100米,116.818833,23.426633
396,明兴印刷厂,"116.790120,23.448634",公司企业;公司;冶金化工,澄海区,秀水路强盛超市北200米,116.79012,23.448634
397,弘益工艺厂,"116.816876,23.437032",公司企业;公司;冶金化工,澄海区,金凤公路兴达工业区,116.816876,23.437032
398,鸿胜模胚厂,"116.739700,23.483935",公司企业;公司;冶金化工,澄海区,X051(澄江路),116.7397,23.483935
399,鹏发工艺厂,"116.767363,23.487750",公司企业;公司;冶金化工,澄海区,华富村塞沟片,116.767363,23.48775
400,祥辉达模具厂,"116.789787,23.453735",公司企业;公司;冶金化工,澄海区,美新大道东21号,116.789787,23.453735
401,联裕塑料制品厂,"116.799220,23.455161",公司企业;公司;冶金化工,澄海区,汕北大道顺兴塑料玩具厂,116.79922,23.455161
402,林兴塑胶厂,"116.796362,23.461255",公司企业;公司;冶金化工,澄海区,安东路与莲河工业区南五路交叉路口往东约50米,116.796362,23.461255
403,金宏印刷厂,"116.777169,23.492837",公司企业;公司;冶金化工,澄海区,莲下镇广源加油站后潮源玩具厂园林二路申通快递最后面路口,116.777169,23.492837
404,迪玛印刷厂,"116.74296,23.486921",公司企业;公司;冶金化工,澄海区,龙田乡龙仙路大路工业区,116.74296,23.486921
405,雅捷印刷厂,"116.833415,23.467048",公司企业;公司;冶金化工,澄海区,莲下镇南湾金鸿公路鸿利工业区,116.833415,23.467048
406,粤艺彩印厂,"116.785033,23.491699",公司企业;公司;冶金化工,澄海区,莲下镇建阳第二工业区,116.785033,23.491699
407,荣光电镀厂,"116.714917,23.531851",公司企业;公司;冶金化工,澄海区,上华镇横陇(鹏发家私对面),116.714917,23.531851
408,恒丰包装厂,"116.758958,23.520718",公司企业;公司;冶金化工,澄海区,莲下镇管陇工业区金奇集团隔壁,116.758958,23.520718
409,宜丰南金加工厂,"116.769771,23.516880",公司企业;公司;冶金化工,澄海区,莲下镇安澄路南侧报警点旁,116.769771,23.51688
410,景浩印刷厂,"116.761238,23.499599",公司企业;公司;冶金化工,澄海区,内隆工业区,116.761238,23.499599
411,莲上永新酒厂,"116.782405,23.511980",公司企业;公司;冶金化工,澄海区,莲上陈厝洋工业区3路9号,116.782405,23.51198
412,端本工艺厂,"116.781405,23.488172",公司企业;公司;冶金化工,澄海区,大坪工业区,116.781405,23.488172
413,明丰玩具车轮厂,"116.811081,23.486681",公司企业;公司;冶金化工,澄海区,S231(莲凤路),116.811081,23.486681
414,辉达工艺厂,"116.757531,23.521073",公司企业;公司;冶金化工,澄海区,莲下镇程洋岗,116.757531,23.521073
415,莲下辉煌工艺厂,"116.796244,23.498146",公司企业;公司;冶金化工,澄海区,槐泽乡敦睦大路5号(古铜色大门),116.796244,23.498146
416,合兴南金厂,"116.759049,23.519194",公司企业;公司;冶金化工,澄海区,东前溪乡寺前工业区,116.759049,23.519194
417,东泽印刷厂,"116.714297,23.530178",公司企业;公司;冶金化工,澄海区,澄海公路与上都路交叉路口西侧,116.714297,23.530178
418,合兴纸厂,"116.757428,23.532895",公司企业;公司;冶金化工,澄海区,莲下镇窖西村窖新路段,116.757428,23.532895
419,牛蛙工厂,"116.798080,23.528342",公司企业;公司;冶金化工,澄海区,莲上镇南徽乡广达造纸厂旁边南发大道左拐第一个路口直走,116.79808,23.528342
420,骏腾工艺品厂,"116.830709,23.554821",公司企业;公司;冶金化工,澄海区,东里镇南畔洲开发区南路9号,116.830709,23.554821
421,金中发制钉厂,"116.795338,23.530565",公司企业;公司;冶金化工,澄海区,G324(福昆线),116.795338,23.530565
422,建发手袋工艺厂,"116.798954,23.544742",公司企业;公司;冶金化工,澄海区,水南北路塘陇幼儿园东北侧约120米,116.798954,23.544742
423,伟源工艺厂,"116.754147,23.561151",公司企业;公司;冶金化工,澄海区,隆都镇前美朱厝,116.754147,23.561151
424,韩江工艺厂,"116.813490,23.568314",公司企业;公司;冶金化工,澄海区,东里镇梅陇洋工业区,116.81349,23.568314
425,宏俊工艺厂,"116.833142,23.567768",公司企业;公司;冶金化工,澄海区,福昆线东里加油站南侧约190米,116.833142,23.567768
426,乙丁工艺厂,"116.815313,23.568920",公司企业;公司;冶金化工,澄海区,东里镇第三中学樟西路旁,116.815313,23.56892
427,捷鸿五金塑料制品厂,"116.837175,23.554884",公司企业;公司;冶金化工,澄海区,东里镇六合路广华基地附近,116.837175,23.554884
428,建信塑胶制品厂,"116.832353,23.562619",公司企业;公司;冶金化工,澄海区,东里镇南社月丁元一区17号,116.832353,23.562619
429,庆源工艺厂,"116.830431,23.556672",公司企业;公司;冶金化工,澄海区,东里镇南畔洲工业区北路20号,116.830431,23.556672
430,绿牌遮阳网厂,"116.838655,23.580966",公司企业;公司;冶金化工,澄海区,G324宝雄汽修厂东北侧,116.838655,23.580966
431,江南食品厂,"116.810730,23.559109",公司企业;公司;冶金化工,澄海区,东里镇石头坑村工业区水尾一号,116.81073,23.559109
432,澄海莲下管陇工艺厂,"116.766462,23.526687",公司企业;公司;冶金化工,澄海区,,116.766462,23.526687
433,汕头市金霸塑胶制品厂,"116.757385,23.459451",公司企业;公司;冶金化工,澄海区,永安路江夏楼(玉亭路)西侧约130米,116.757385,23.459451
434,汕头市生大彩印厂,"116.745545,23.458987",公司企业;公司;冶金化工,澄海区,澄华路与玉潭路交叉路口往东南约280米,116.745545,23.458987
435,LE sweater原创工厂,"116.764318,23.452894",公司企业;公司;冶金化工,澄海区,中兴街建设大厦东侧约130米,116.764318,23.452894
436,毛衣工厂,"116.764375,23.452228",公司企业;公司;冶金化工,澄海区,中山南路建设大厦东南侧约150米,116.764375,23.452228
437,泽锋PVC吸塑厂,"116.775164,23.450954",公司企业;公司;冶金化工,澄海区,池下路子博幼儿园东北侧约70米,116.775164,23.450954
438,斌煌五金制品厂,"116.734505,23.472731",公司企业;公司;冶金化工,澄海区,玉亭路与南田路交叉口西北340米,116.734505,23.472731
439,晟辉达注塑厂,"116.808021,23.434293",公司企业;公司;冶金化工,澄海区,凤翔街道洲畔大山沟,116.808021,23.434293
440,少杰模具加工厂,"116.738068,23.483142",公司企业;公司;冶金化工,澄海区,锦利超市西北100米(澄江路北),116.738068,23.483142
441,盈恒片材厂,"116.794286,23.446853",公司企业;公司;冶金化工,澄海区,凤翔街道白沙蔬菜原种研究所内第四育种支队北面(奇乐多隔壁),116.794286,23.446853
442,普顺五金厂,"116.777594,23.456858",公司企业;公司;冶金化工,澄海区,东港路2号,116.777594,23.456858
443,九五安邦,"116.774154,23.475477",公司企业;公司;冶金化工,澄海区,美新西一路超智星大厦西侧约150米,116.774154,23.475477
444,华顺吸塑厂,"116.794921,23.442297",公司企业;公司;冶金化工,澄海区,S336(莱美路),116.794921,23.442297
445,泽锦达塑胶制品厂,"116.799899,23.440822",公司企业;公司;冶金化工,澄海区,兴业南路莱美工业区南四门西侧约60米,116.799899,23.440822
446,福岗模具加工厂,"116.787711,23.456821",公司企业;公司;冶金化工,澄海区,凤新一路湖兴2路西3号,116.787711,23.456821
447,裕鑫二厂,"116.821600,23.434748",公司企业;公司;冶金化工,澄海区,S336(汕头市裕鑫科教玩具实业有限公司),116.8216,23.434748
448,澄海东阳牙箱厂,"116.753522,23.493015",公司企业;公司;冶金化工,澄海区,登峰路登峰公寓西北侧约210米,116.753522,23.493015
449,攀佳胶带厂,"116.767985,23.476892",公司企业;公司;冶金化工,澄海区,汕汾路益泰园东侧约70米,116.767985,23.476892
450,宝美印刷厂,"116.814794,23.435648",公司企业;公司;冶金化工,澄海区,539国道与金鸿公路交叉口东260米,116.814794,23.435648
451,广益路彬彬热切布料厂,"116.751142,23.486932",公司企业;公司;冶金化工,澄海区,龙峰路(澄海区国驰货运配载中心西侧约160米),116.751142,23.486932
452,昊月纸塑玩具包装厂,"116.744332,23.488226",公司企业;公司;冶金化工,澄海区,广益街道龙田乡龙仙路5横8号,116.744332,23.488226
453,达成美吸塑厂,"116.798785,23.458221",公司企业;公司;冶金化工,澄海区,凤新二路中心路北16巷7号,116.798785,23.458221
454,汕头市澄海区荣裕工艺厂,"116.733467,23.473165",公司企业;公司;冶金化工,澄海区,澄华工业区源通工业园大门往里左侧大楼4楼,116.733467,23.473165
455,汕头市金丰利工艺厂,"116.740727,23.580319",公司企业;公司;冶金化工,澄海区,云路乡道,116.740727,23.580319
456,联盛真空电镀厂,"116.802378,23.541445",公司企业;公司;冶金化工,澄海区,水南路口公路西侧,116.802378,23.541445
457,珠海市中艺坊家俱厂,"116.830039,23.563705",公司企业;公司;冶金化工,澄海区,东里镇新陇樟西路金桐e茶酒对面,116.830039,23.563705
458,汕头市恒信转印材料厂,"116.822395,23.535288",公司企业;公司;冶金化工,澄海区,凤东路,116.822395,23.535288
459,晶鑫五金塑料厂,"116.820278,23.532953",公司企业;公司;冶金化工,澄海区,溪南镇银东工业区凤东三路东侧,116.820278,23.532953
460,隆兴泡沫厂,"116.807087,23.577094",公司企业;公司;冶金化工,澄海区,东铁路璞玉幼儿园东北侧约100米,116.807087,23.577094
461,毅扬家用电器厂,"116.821909,23.574867",公司企业;公司;冶金化工,澄海区,樟西路21号,116.821909,23.574867
462,猛跃五金制品厂,"116.821334,23.574620",公司企业;公司;冶金化工,澄海区,樟西路树础幼儿园西侧约210米,116.821334,23.57462
463,龙彬激光切割厂,"116.736949,23.569374",公司企业;公司;冶金化工,澄海区,G15(沈海高速),116.736949,23.569374
464,狮山钢结构厂,"116.813410,23.552553",公司企业;公司;冶金化工,澄海区,福昆线与联青路交叉路口往北约270米,116.81341,23.552553
465,溪南旧粮厂,"116.813581,23.553415",公司企业;公司;冶金化工,澄海区,溪南大新狮山4号,116.813581,23.553415
466,凤凰乌岽天泉酒厂,"116.836582,23.579498",公司企业;公司;冶金化工,澄海区,,116.836582,23.579498
467,满盛食品厂,"116.784188,23.570512",公司企业;公司;冶金化工,澄海区,隆都镇东山村木莉片,116.784188,23.570512
468,腾达美服装厂,"116.814308,23.551018",公司企业;公司;冶金化工,澄海区,溪南镇南砂乡联青路北15巷2号,116.814308,23.551018
469,皇涛五金塑料制品厂,"116.824083,23.581875",公司企业;公司;冶金化工,澄海区,539国道与樟西路交叉口北400米,116.824083,23.581875
470,沛丰注塑厂,"116.783973,23.563799",公司企业;公司;冶金化工,澄海区,055县道南50米,116.783973,23.563799
471,东里先锋五金厂,"116.817117,23.569936",公司企业;公司;冶金化工,澄海区,东里镇塘西工业区南片区14号,116.817117,23.569936
472,立超食品厂,"116.785726,23.569206",公司企业;公司;冶金化工,澄海区,隆都镇东山村,116.785726,23.569206
473,迪鸿泡沫厂,"116.853684,23.590558",公司企业;公司;冶金化工,澄海区,鸿四大道,116.853684,23.590558
474,海帆五金塑料制品厂,"116.835089,23.563162",公司企业;公司;冶金化工,澄海区,东里镇南社月丁元工业区三区3号,116.835089,23.563162
475,新佳工艺厂,"116.835705,23.577473",公司企业;公司;冶金化工,澄海区,G324(福昆线),116.835705,23.577473
476,529五金制品厂,"116.842352,23.582737",公司企业;公司;冶金化工,澄海区,福昆线,116.842352,23.582737
477,颜彩塑胶颜料色母厂,"116.796605,23.578219",公司企业;公司;冶金化工,澄海区,汕头市澄海区莲华镇东铁路中段(莲华中学旁),116.796605,23.578219
478,嘉耐特五金塑料制品厂,"116.832705,23.562959",公司企业;公司;冶金化工,澄海区,东里镇南社村月丁元工业区第一区18号,116.832705,23.562959
479,汕头市华联化工有限公司,"116.749453,23.459219",公司企业;公司;冶金化工,澄海区,下窖五里亭工业区,116.749453,23.459219
480,荣喜一肉制品厂,"116.732141,23.468816",公司企业;公司;冶金化工,澄海区,澄华路与文华南路交叉口东北150米处,116.732141,23.468816
481,裕源印刷厂,"116.722490,23.486618",公司企业;公司;冶金化工,澄海区,X051(澄海公路),116.72249,23.486618
482,汕头市澄海区恒骏塑胶制品厂,"116.781766,23.446073",公司企业;公司;冶金化工,澄海区,凤新一路与莱美路交界桥南侧,116.781766,23.446073
483,众鑫隆自动机厂,"116.812481,23.441014",公司企业;公司;冶金化工,澄海区,凤翔街道洲畔社区高茂坝凤翔路旁,116.812481,23.441014
484,丹艺彩绘厂,"116.821265,23.476028",公司企业;公司;冶金化工,澄海区,金成路海后综合市场东侧约270米,116.821265,23.476028
485,玖壹塑胶制品厂,"116.789564,23.477982",公司企业;公司;冶金化工,澄海区,延德路,116.789564,23.477982
486,钰煌玩具一厂,"116.781306,23.484938",公司企业;公司;冶金化工,澄海区,莲下镇蔡寮槐南工业道欣悦购物附近,116.781306,23.484938
487,雄腾印刷厂,"116.768340,23.520172",公司企业;公司;冶金化工,澄海区,莲下镇银溪村莲南工业区,116.76834,23.520172
488,荣中塑料厂,"116.820617,23.475221",公司企业;公司;冶金化工,澄海区,金成路海后综合市场东侧约210米,116.820617,23.475221
489,欢乐迪玩具,"116.734156,23.580679",公司企业;公司;冶金化工,澄海区,龙都镇下北村云路乡道(321省道东90米左右),116.734156,23.580679
490,鸿嘉摩托车配件厂,"116.802603,23.571842",公司企业;公司;冶金化工,澄海区,莲华镇隆南村草洋仔,116.802603,23.571842
491,陈业塑胶制品厂,"116.771435,23.572175",公司企业;公司;冶金化工,澄海区,潮汕环线高速(上西小学东北侧约50米),116.771435,23.572175
492,莲东五金厂,"116.810161,23.585299",公司企业;公司;冶金化工,澄海区,东浦村,116.810161,23.585299
493,汕头市澄海区盛发毛料厂,"116.733728,23.465673",公司企业;公司;冶金化工,澄海区,兴业路10号,116.733728,23.465673
494,汕头市澄海区松达印刷厂,"116.762351,23.476954",公司企业;公司;冶金化工,澄海区,阜安路宜嘉名都西侧约30米,116.762351,23.476954
495,老鲁数控凸轮车床加工厂,"116.813204,23.569190",公司企业;公司;冶金化工,澄海区,东铁路与文化路交叉口北180米,116.813204,23.56919
496,汕头市澄海区莲下乐桦彩印厂,"116.779503,23.503078",公司企业;公司;冶金化工,澄海区,莲下镇南洋工业城斜对面涂角场内,116.779503,23.503078
497,汕头市澄海区培淇服装厂,"116.814158,23.569600",公司企业;公司;冶金化工,澄海区,樟隆路东里镇第三中学北侧约120米,116.814158,23.5696
498,澄海区溪南工业区锦浩薄膜厂,"116.794979,23.533306",公司企业;公司;冶金化工,澄海区,溪南镇工业区清香阁隔壁,116.794979,23.533306
499,辉宏模具厂(牙箱模包注模),"116.789785,23.454497",公司企业;公司;冶金化工,澄海区,凤新二路与凤业一路交叉路口往西北约210米,116.789785,23.454497
500,汕头市澄海区雄胜达吸塑厂,"116.788960,23.491420",公司企业;公司;冶金化工,澄海区,莲下镇建阳大海门工业区第一大道松珍幼儿园隔壁,116.78896,23.49142
501,汕头市澄海区鸿兴塑胶新厂,"116.846113,23.584220",公司企业;公司;冶金化工,澄海区,G324(福昆线),116.846113,23.58422
502,汕头市澄海区昱利昌冷冻厂,"116.864894,23.605472",公司企业;公司;冶金化工,澄海区,福昆线利群兴北侧约230米,116.864894,23.605472
503,汕头市澄海区联发磨光复膜厂,"116.775803,23.504581",公司企业;公司;冶金化工,澄海区,莲下镇李厝宫内州工业区9号,116.775803,23.504581
504,汕头市澄海区生机盛橡胶制品厂,"116.723877,23.589435",公司企业;公司;冶金化工,澄海区,林盛大道澄海上北小学北侧约50米,116.723877,23.589435
505,汕头市澄海区金美佳铸造厂,"116.834480,23.566077",公司企业;公司;冶金化工,澄海区,东里镇官埕工业区6-7号,116.83448,23.566077
506,汕头市澄海区宝森纸品包装厂,"116.718092,23.494211",公司企业;公司;冶金化工,澄海区,上华镇渡头村,116.718092,23.494211
507,汕头市澄海区派英服装工艺厂,"116.738764,23.562156",公司企业;公司;冶金化工,澄海区,231省道与G15沈海高速出口交叉口南160米,116.738764,23.562156
508,广东胜雄玩具实业有限公司(分厂),"116.734948,23.469447",公司企业;公司;冶金化工,澄海区,G15(沈海高速),116.734948,23.469447
509,鸿基电子玩具加工厂,"116.713083,23.535973",公司企业;公司;冶金化工,澄海区,上华镇凤岭大道南,116.713083,23.535973
510,汕头市澄海区东里东发金属轧延厂,"116.835068,23.556031",公司企业;公司;冶金化工,澄海区,六合路与南和路交叉路口往东北约200米,116.835068,23.556031
511,岭海中小微企业创业园通用厂房,"116.843050,23.432169",公司企业;公司;冶金化工,澄海区,清平路与海源路交叉口西40米,116.84305,23.432169
512,铭兴,"116.774037,23.474830",公司企业;公司;冶金化工,澄海区,振兴路美新区19巷30号,116.774037,23.47483
513,澄海区坝头荣福工业区金炬压铸厂,"116.821142,23.433936",公司企业;公司;冶金化工,澄海区,539国道与601乡道交叉口东北240米,116.821142,23.433936
514,汕头市新宜制罐设备有限公司一厂,"116.783857,23.487299",公司企业;公司;冶金化工,澄海区,S231(莲凤路),116.783857,23.487299
515,汕头市澄海区东里彩霓包装印刷厂,"116.819012,23.568847",公司企业;公司;冶金化工,澄海区,支渠路塘西学校北侧约60米,116.819012,23.568847
516,汕头市澄海区凤翔信宁建青五金配件厂,"116.792716,23.458661",公司企业;公司;冶金化工,澄海区,信兴四马路十一直巷9号,116.792716,23.458661
517,汕头市澄海区莲河路北7巷澄海区永发工艺厂,"116.797181,23.461985",公司企业;公司;冶金化工,澄海区,莲河路78号,116.797181,23.461985
518,澄海市莲上镇宏发塑胶厂,"116.788970,23.518810",公司企业;公司;冶金化工,澄海区,福昆线涂城蔬菜批发市场西南侧约130米,116.78897,23.51881
519,汕头市金铎塑胶化工有限公司(隆都镇人民政府东北),"116.733205,23.579958",公司企业;公司;冶金化工,澄海区,S231与云路乡道交叉路口西南侧,116.733205,23.579958
520,广东省汕头市澄海区莲下镇渡亭村豪艺制袋厂,"116.789033,23.481030",公司企业;公司;冶金化工,澄海区,莲东一路与莲鸿路交叉路口往东约230米,116.789033,23.48103
521,宝妮日化公司,"116.753121,23.45997",公司企业;公司;冶金化工,澄海区,上埭工业区,116.753121,23.45997
522,云澳五金厂,"117.111828,23.400530",公司企业;公司;冶金化工,南澳县,云青公路N园全球通希望小学南侧约150米,117.111828,23.40053
